[{"OBJECT_NAME":"JILIN-1 05","OBJECT_ID":"2017-074B","EPOCH":"2026-03-09T21:56:30.612480","MEAN_MOTION":15.3245271,"ECCENTRICITY":0.00045948,"INCLINATION":97.4781,"RA_OF_ASC_NODE":173.8936,"ARG_OF_PERICENTER":206.4038,"MEAN_ANOMALY":153.6971,"EPHEMERIS_TYPE":0,"CLASSIFICATION_TYPE":"U","NORAD_CAT_ID":43023,"ELEMENT_SET_NO":999,"REV_AT_EPOCH":45879,"BSTAR":0.00026108793,"MEAN_MOTION_DOT":8.104e-5,"MEAN_MOTION_DDOT":0},{"OBJECT_NAME":"STARLINK-2404","OBJECT_ID":"2021-027B","EPOCH":"2026-03-09T10:54:24.902496","MEAN_MOTION":15.30185413,"ECCENTRICITY":0.00012125,"INCLINATION":53.1593,"RA_OF_ASC_NODE":156.0452,"ARG_OF_PERICENTER":104.0491,"MEAN_ANOMALY":256.0644,"EPHEMERIS_TYPE":0,"CLASSIFICATION_TYPE":"U","NORAD_CAT_ID":48093,"ELEMENT_SET_NO":999,"REV_AT_EPOCH":27262,"BSTAR":0.00011922013,"MEAN_MOTION_DOT":3.172e-5,"MEAN_MOTION_DDOT":0}]
